GALAXY 25 (G-25)        
1 24812U 97026A   24020.25637326  .00000081  00000+0  00000+0 0  9990
2 24812   5.1593  77.7280 0006490 272.0683 273.5805  0.99093102 97515
INTELSAT 5 (IS-5)       
1 24916U 97046A   24020.52055144 -.00000067  00000+0  00000+0 0  9994
2 24916   8.4784  56.6980 0005435 208.0291 208.2012  1.00272356 96813
GALAXY 11 (G-11)        
1 26038U 99071A   24020.64353125 -.00000056  00000+0  00000+0 0  9992
2 26038   4.4975  81.1222 0000536 172.8428 263.4965  1.00271598 88275
INTELSAT 9 (IS-9)       
1 26451U 00043A   24020.55286281 -.00000291  00000+0  00000+0 0  9991
2 26451   8.4638  56.8970 0003780 233.3256 338.2233  1.00270986 35337
INTELSAT 1R (IS-1R)     
1 26608U 00072A   24020.63263204 -.00000141  00000+0  00000+0 0  9990
2 26608   5.8720  74.2852 0002160 233.5288 196.5555  1.00272581 32517
INTELSAT 901 (IS-901)   
1 26824U 01024A   24020.45548135 -.00000198  00000+0  00000+0 0  9999
2 26824   0.0575 258.1231 0000873  38.7677 318.8918  1.00270036 14179
INTELSAT 902 (IS-902)   
1 26900U 01039A   24020.45095618 -.00000282  00000+0  00000+0 0  9997
2 26900   3.8804  82.4026 0002766 225.7517 283.4039  1.00270404 81886
INTELSAT 904 (IS-904)   
1 27380U 02007A   24020.45504624 -.00000215  00000+0  00000+0 0  9994
2 27380   4.7032  79.5578 0003145 221.4555 312.6093  1.00272093 42954
INTELSAT 905 (IS-905)   
1 27438U 02027A   24020.45609052 -.00000185  00000+0  00000+0 0  9997
2 27438   4.5278  80.2297 0003025 222.3226 316.4492  1.00270758 42554
GALAXY 3C (G-3C)        
1 27445U 02030A   24020.62542399 -.00000149  00000+0  00000+0 0  9998
2 27445   1.4671  88.8433 0001048 233.2002 287.7367  1.00271323 37685
INTELSAT 906 (IS-906)   
1 27513U 02041A   24020.40213640  .00000014  00000+0  00000+0 0  9996
2 27513   3.5540  83.6899 0005520 198.8929  45.6016  1.00272827 78217
GALAXY 23 (G-23)        
1 27854U 03034A   24020.59699851  .00000016  00000+0  00000+0 0  9991
2 27854   0.9204  91.1576 0002667 214.5075 267.8301  1.00272866 74939
GALAXY 13 (HORIZONS-1)  
1 27954U 03044A   24020.56820050  .00000137  00000+0  00000+0 0  9991
2 27954   0.0171 275.7998 0003324 266.3814 351.7898  1.00267193 37760
XM-3 (RHYTHM)           
1 28626U 05008A   24020.44118480 -.00000200  00000+0  00000+0 0  9996
2 28626   0.0403 220.6667 0000293 356.8980 335.4414  1.00268763 33817
DIRECTV 8               
1 28659U 05019A   24020.59837573  .00000006  00000+0  00000+0 0  9994
2 28659   0.0275  59.9266 0003235 246.3001 269.6082  1.00271127 68268
GALAXY 28 (G-28)        
1 28702U 05022A   24020.49647308 -.00000181  00000+0  00000+0 0  9996
2 28702   1.0246  89.7187 0006604 195.7864 283.5644  1.00271288 43176
GALAXY 14 (G-14)        
1 28790U 05030A   24020.46749050  .00000156  00000+0  00000+0 0  9997
2 28790   2.7478  85.6378 0001669 211.1117  23.7441  1.00271783 67495
SPACEWAY 2              
1 28903U 05046B   24020.57831064  .00000104  00000+0  00000+0 0  9992
2 28903   3.2550  82.0035 0000642 149.4527 317.2556  1.00270324 42533
GALAXY 16 (G-16)        
1 29236U 06023A   24020.61611069 -.00000122  00000+0  00000+0 0  9995
2 29236   0.0550 248.5495 0002735  49.1550 304.5513  1.00271377 64168
DIRECTV 9S              
1 29494U 06043A   24020.61465611 -.00000109  00000+0  00000+0 0  9998
2 29494   0.1459  88.9034 0003224 212.9102 297.7288  1.00272293 42576
GALAXY 17 (G-17)        
1 31307U 07016B   24020.44113479 -.00000202  00000+0  00000+0 0  9992
2 31307   0.7376  91.4065 0005096 217.5152 244.1872  1.00271644 60994
DIRECTV 10              
1 31862U 07032A   24020.61347726 -.00000098  00000+0  00000+0 0  9992
2 31862   0.0253 140.8433 0000572 170.2665 286.4222  1.00267188 36789
SPACEWAY 3              
1 32018U 07036A   24020.44895465 -.00000250  00000+0  00000+0 0  9999
2 32018   1.7082  87.2687 0001181 348.9853 144.5037  0.99780817 37747
INTELSAT 11 (IS-11)     
1 32253U 07044B   24020.45234853 -.00000265  00000+0  00000+0 0  9994
2 32253   1.2798  89.6772 0003310 213.1277 296.3496  1.00270911 59681
HORIZONS-2              
1 32388U 07063B   24020.44625694 -.00000249  00000+0  00000+0 0  9992
2 32388   0.3265  91.2134 0002235 211.3708 263.5634  1.00271374 59004
